delta
1 06251U 62025A   06176.82412014 +.00008885 +00000-0 +12808-3 0 03985
2 06251 058.0579 054.0425 0030035 139.1568 221.1854 15.56387291006774